NORAD_CAT_ID,OBJECT_NAME,OBJECT_TYPE,EPOCH,MEAN_MOTION,ECCENTRICITY,INCLINATION,RA_OF_ASC_NODE,ARG_OF_PERICENTER,MEAN_ANOMALY,BSTAR,MEAN_MOTION_DOT,MEAN_MOTION_DDOT,TLE_LINE0,TLE_LINE1,TLE_LINE2,SEMIMAJOR_AXIS,PERIOD,APOGEE,PERIGEE,DECAYED
52370.0,STARLINK-3827,PAYLOAD,2024-04-26 10:23:12,15.0884548,0.0001506,53.2205,11.8994,68.403,291.7123,9.1829e-05,1.174e-05,0.0,0 STARLINK-3827,1 52370U 22045AR  24117.43278770  .00001174  00000-0  91829-4 0  9999,2 52370  53.2205  11.8994 0001506  68.4030 291.7123 15.08845480112924,6917.864,95.437,540.77,538.687,0.0
52370.0,STARLINK-3827,PAYLOAD,2024-04-26 23:06:18,15.08843901,0.0001178,53.2197,9.5194,82.8286,277.284,9.8103e-05,1.274e-05,0.0,0 STARLINK-3827,1 52370U 22045AR  24117.96270842  .00001274  00000-0  98103-4 0  9992,2 52370  53.2197   9.5194 0001178  82.8286 277.2840 15.08843901113009,6917.868,95.437,540.548,538.919,0.0
52370.0,STARLINK-3827,PAYLOAD,2024-04-27 02:17:03,15.08860769,0.0001518,53.2198,8.9259,81.2915,278.825,0.00023711,3.49e-05,0.0,0 STARLINK-3827,1 52370U 22045AR  24118.09517442  .00003490  00000-0  23711-3 0  9991,2 52370  53.2198   8.9259 0001518  81.2915 278.8250 15.08860769113020,6917.817,95.436,540.732,538.632,0.0
52370.0,STARLINK-3827,PAYLOAD,2024-04-27 10:14:00,15.088348,0.0001401,53.2198,7.4408,81.0537,279.0614,2.1583e-05,5.6e-07,0.0,0 STARLINK-3827,1 52370U 22045AR  24118.42639538  .00000056  00000-0  21583-4 0  9990,2 52370  53.2198   7.4408 0001401  81.0537 279.0614 15.08834800113078,6917.896,95.438,540.73,538.792,0.0
52370.0,STARLINK-3827,PAYLOAD,2024-04-27 22:57:06,15.08833176,0.0001565,53.2191,5.0606,115.1766,244.9389,-0.00013953,-2.508e-05,0.0,0 STARLINK-3827,1 52370U 22045AR  24118.95632247 -.00002508  00000-0 -13953-3 0  9995,2 52370  53.2191   5.0606 0001565 115.1766 244.9389 15.08833176113153,6917.901,95.438,540.849,538.684,0.0
52370.0,STARLINK-3827,PAYLOAD,2024-04-28 02:07:52,15.08835387,0.000147,53.2201,4.4643,104.1985,255.917,-0.00015493,-2.753e-05,0.0,0 STARLINK-3827,1 52370U 22045AR  24119.08880240 -.00002753  00000-0 -15493-3 0  9991,2 52370  53.2201   4.4643 0001470 104.1985 255.9170 15.08835387113173,6917.894,95.438,540.776,538.743,0.0
52370.0,STARLINK-3827,PAYLOAD,2024-04-28 21:12:29,15.08839991,0.0001528,53.22,0.8978,102.6282,257.4881,6.5417e-05,7.53e-06,0.0,0 STARLINK-3827,1 52370U 22045AR  24119.88367545  .00000753  00000-0  65417-4 0  9995,2 52370  53.2200   0.8978 0001528 102.6282 257.4881 15.08839991113294,6917.88,95.438,540.802,538.688,0.0
52370.0,STARLINK-3827,PAYLOAD,2024-04-28 22:47:52,15.0884302,0.000121,53.218,0.6016,91.7594,268.3537,9.5679e-05,1.235e-05,0.0,0 STARLINK-3827,1 52370U 22045AR  24119.94991306  .00001235  00000-0  95679-4 0  9999,2 52370  53.2180   0.6016 0001210  91.7594 268.3537 15.08843020113303,6917.871,95.437,540.573,538.899,0.0
52370.0,STARLINK-3827,PAYLOAD,2024-04-29 21:03:17,15.08828404,0.0001211,53.2187,356.4394,102.9113,257.2015,0.00023291,3.42e-05,0.0,0 STARLINK-3827,1 52370U 22045AR  24120.87728041  .00003420  00000-0  23291-3 0  9995,2 52370  53.2187 356.4394 0001211 102.9113 257.2015 15.08828404113446,6917.916,95.438,540.619,538.943,0.0
52370.0,STARLINK-3827,PAYLOAD,2024-04-29 22:38:40,15.08829923,0.0001163,53.2188,356.1444,98.0711,262.0413,0.00025731,3.809e-05,0.0,0 STARLINK-3827,1 52370U 22045AR  24120.94351940  .00003809  00000-0  25731-3 0  9995,2 52370  53.2188 356.1444 0001163  98.0711 262.0413 15.08829923113459,6917.911,95.438,540.581,538.972,0.0
52370.0,STARLINK-3827,PAYLOAD,2024-04-30 08:10:58,15.0883851,0.0001124,53.2182,354.3595,99.4796,260.6324,8.4361e-05,1.055e-05,0.0,0 STARLINK-3827,1 52370U 22045AR  24121.34095847  .00001055  00000-0  84361-4 0  9997,2 52370  53.2182 354.3595 0001124  99.4796 260.6324 15.08838510113519,6917.885,95.438,540.528,538.972,0.0
52370.0,STARLINK-3827,PAYLOAD,2024-04-30 20:54:03,15.08846614,0.0001152,53.2183,351.9811,102.8362,257.2759,-5.8685e-05,-1.222e-05,0.0,0 STARLINK-3827,1 52370U 22045AR  24121.87087893 -.00001222  00000-0 -58685-4 0  9995,2 52370  53.2183 351.9811 0001152 102.8362 257.2759 15.08846614113599,6917.86,95.437,540.522,538.928,0.0
52370.0,STARLINK-3827,PAYLOAD,2024-04-30 22:29:27,15.08842842,0.0001174,53.2181,351.6833,109.7567,250.3551,3.2242e-06,-2.37e-06,0.0,0 STARLINK-3827,1 52370U 22045AR  24121.93711881 -.00000237  00000-0  32242-5 0  9999,2 52370  53.2181 351.6833 0001174 109.7567 250.3551 15.08842842113600,6917.872,95.437,540.549,538.925,0.0
52370.0,STARLINK-3827,PAYLOAD,2024-05-01 08:01:45,15.08842087,0.000126,53.2189,349.8986,101.7224,258.391,0.00013245,1.821e-05,0.0,0 STARLINK-3827,1 52370U 22045AR  24122.33455539  .00001821  00000-0  13245-3 0  9998,2 52370  53.2189 349.8986 0001260 101.7224 258.3910 15.08842087113668,6917.874,95.437,540.611,538.867,0.0
52370.0,STARLINK-3827,PAYLOAD,2024-05-01 23:55:36,15.08846498,0.0001263,53.2188,346.9247,95.6468,264.4668,5.4182e-05,5.75e-06,0.0,0 STARLINK-3827,1 52370U 22045AR  24122.99695182  .00000575  00000-0  54182-4 0  9991,2 52370  53.2188 346.9247 0001263  95.6468 264.4668 15.08846498113768,6917.861,95.437,540.599,538.852,0.0
52370.0,STARLINK-3827,PAYLOAD,2024-05-02 07:52:32,15.08846887,0.000122,53.2191,345.4363,87.6377,272.4755,-4.0471e-06,-3.52e-06,0.0,0 STARLINK-3827,1 52370U 22045AR  24123.32815173 -.00000352  00000-0 -40471-5 0  9995,2 52370  53.2191 345.4363 0001220  87.6377 272.4755 15.08846887113812,6917.859,95.437,540.568,538.88,0.0
52370.0,STARLINK-3827,PAYLOAD,2024-05-02 20:35:37,15.08839534,0.0001195,53.2181,343.0572,88.3093,271.8036,-2.6602e-05,-7.11e-06,0.0,0 STARLINK-3827,1 52370U 22045AR  24123.85807835 -.00000711  00000-0 -26602-4 0  9997,2 52370  53.2181 343.0572 0001195  88.3093 271.8036 15.08839534113895,6917.882,95.438,540.574,538.92,0.0
52370.0,STARLINK-3827,PAYLOAD,2024-05-03 07:43:20,15.0883674,0.0001151,53.2178,340.9743,90.2117,269.9007,-5.3237e-05,-1.135e-05,0.0,0 STARLINK-3827,1 52370U 22045AR  24124.32176047 -.00001135  00000-0 -53237-4 0  9999,2 52370  53.2178 340.9743 0001151  90.2117 269.9007 15.08836740113968,6917.89,95.438,540.552,538.959,0.0
52370.0,STARLINK-3827,PAYLOAD,2024-05-03 20:26:25,15.08830854,0.0001557,53.2169,338.5955,88.7048,271.4122,-3.8226e-05,-8.96e-06,0.0,0 STARLINK-3827,1 52370U 22045AR  24124.85168674 -.00000896  00000-0 -38226-4 0  9998,2 52370  53.2169 338.5955 0001557  88.7048 271.4122 15.08830854114047,6917.908,95.438,540.85,538.696,0.0
52370.0,STARLINK-3827,PAYLOAD,2024-05-03 22:01:48,15.08832628,0.0001383,53.2174,338.2993,88.3838,271.7312,-2.3014e-05,-6.54e-06,0.0,0 STARLINK-3827,1 52370U 22045AR  24124.91792494 -.00000654  00000-0 -23014-4 0  9999,2 52370  53.2174 338.2993 0001383  88.3838 271.7312 15.08832628114058,6917.903,95.438,540.725,538.811,0.0
52370.0,STARLINK-3827,PAYLOAD,2024-05-04 07:34:07,15.08836669,0.0001346,53.2176,336.5146,89.4704,270.6442,1.2773e-05,-8.5e-07,0.0,0 STARLINK-3827,1 52370U 22045AR  24125.31536257 -.00000085  00000-0  12773-4 0  9994,2 52370  53.2176 336.5146 0001346  89.4704 270.6442 15.08836669114112,6917.891,95.438,540.687,538.824,0.0
52370.0,STARLINK-3827,PAYLOAD,2024-05-04 23:27:58,15.08844019,0.0001194,53.2177,333.5406,88.2114,271.9015,9.2829e-05,1.19e-05,0.0,0 STARLINK-3827,1 52370U 22045AR  24125.97775678  .00001190  00000-0  92829-4 0  9995,2 52370  53.2177 333.5406 0001194  88.2114 271.9015 15.08844019114211,6917.868,95.437,540.559,538.907,0.0
52370.0,STARLINK-3827,PAYLOAD,2024-05-05 20:07:58,15.08845439,0.0001131,53.2176,329.6757,91.8734,268.2388,0.00012713,1.736e-05,0.0,0 STARLINK-3827,1 52370U 22045AR  24126.83887573  .00001736  00000-0  12713-3 0  9998,2 52370  53.2176 329.6757 0001131  91.8734 268.2388 15.08845439114347,6917.864,95.437,540.511,538.946,0.0
52370.0,STARLINK-3827,PAYLOAD,2024-05-06 19:58:45,15.08847474,0.0001163,53.2186,325.2135,98.4975,261.6149,9.6137e-05,1.243e-05,0.0,0 STARLINK-3827,1 52370U 22045AR  24127.83247263  .00001243  00000-0  96137-4 0  9991,2 52370  53.2186 325.2135 0001163  98.4975 261.6149 15.08847474114494,6917.858,95.437,540.527,538.918,0.0
52370.0,STARLINK-3827,PAYLOAD,2024-05-07 13:28:01,15.08837385,0.0001208,53.2187,321.9439,92.4572,267.6558,-4.6133e-05,-1.022e-05,0.0,0 STARLINK-3827,1 52370U 22045AR  24128.56112402 -.00001022  00000-0 -46133-4 0  9996,2 52370  53.2187 321.9439 0001208  92.4572 267.6558 15.08837385114605,6917.888,95.438,540.589,538.918,0.0
52370.0,STARLINK-3827,PAYLOAD,2024-05-07 19:49:33,15.08835055,0.0001204,53.2186,320.754,94.9962,265.1167,-6.367e-05,-1.301e-05,0.0,0 STARLINK-3827,1 52370U 22045AR  24128.82608601 -.00001301  00000-0 -63670-4 0  9991,2 52370  53.2186 320.7540 0001204  94.9962 265.1167 15.08835055114645,6917.896,95.438,540.593,538.928,0.0
52370.0,STARLINK-3827,PAYLOAD,2024-05-08 11:43:25,15.08837071,0.0001058,53.2177,317.7801,89.5985,270.5128,-7.049e-05,-1.409e-05,0.0,0 STARLINK-3827,1 52370U 22045AR  24129.48848855 -.00001409  00000-0 -70490-4 0  9998,2 52370  53.2177 317.7801 0001058  89.5985 270.5128 15.08837071114741,6917.889,95.438,540.486,539.022,0.0
52370.0,STARLINK-3827,PAYLOAD,2024-05-08 19:40:20,15.08843725,0.0001043,53.2179,316.2959,89.8945,270.2167,8.3155e-06,-1.55e-06,0.0,0 STARLINK-3827,1 52370U 22045AR  24129.81968169 -.00000155  00000-0  83155-5 0  9995,2 52370  53.2179 316.2959 0001043  89.8945 270.2167 15.08843725114792,6917.869,95.437,540.456,539.012,0.0
52370.0,STARLINK-3827,PAYLOAD,2024-05-09 11:34:12,15.08829248,0.0001098,53.2179,313.3229,89.5068,270.605,0.00025155,3.717e-05,0.0,0 STARLINK-3827,1 52370U 22045AR  24130.48208354  .00003717  00000-0  25155-3 0  9993,2 52370  53.2179 313.3229 0001098  89.5068 270.6050 15.08829248114893,6917.913,95.438,540.538,539.019,0.0
52370.0,STARLINK-3827,PAYLOAD,2024-05-09 19:31:07,15.08840421,9.35e-05,53.2178,311.8359,71.8767,288.2327,0.00025398,3.757e-05,0.0,0 STARLINK-3827,1 52370U 22045AR  24130.81328040  .00003757  00000-0  25398-3 0  9998,2 52370  53.2178 311.8359 0000935  71.8767 288.2327 15.08840421114942,6917.879,95.438,540.391,539.097,0.0
